ORBCOMM FM05            
1 25117U 97084F   25093.45276884  .00004190  00000+0  12147-2 0  9997
2 25117  45.0159   6.8063 0001189 228.5138 131.5612 14.45596861429792
ORBCOMM FM06            
1 25118U 97084G   25093.48414240  .00004097  00000+0  11850-2 0  9997
2 25118  45.0151   6.4757 0000657 287.6536 241.8734 14.45742815430714
ORBCOMM FM07            
1 25119U 97084H   25093.46440348  .00003849  00000+0  11165-2 0  9997
2 25119  45.0147   7.3348 0001775 205.2149 154.8616 14.45714101430702
ORBCOMM FM03            
1 25158U 98007B   25093.57376952  .00002502  00000+0  92603-3 0  9999
2 25158 107.9661 342.3606 0045324  17.3789 342.8890 14.34250264413340
ORBCOMM FM04            
1 25159U 98007C   25093.57108580  .00002559  00000+0  94320-3 0  9990
2 25159 107.9644 345.5250 0041139  14.5798 345.6519 14.34505222413527
ORBCOMM FM17            
1 25413U 98046A   25093.48940855  .00002345  00000+0  86662-3 0  9998
2 25413  44.9930 250.0972 0003619 193.4438 166.6313 14.34899889392443
ORBCOMM FM18            
1 25414U 98046B   25093.55037102  .00002683  00000+0  91968-3 0  9999
2 25414  44.9913 169.1828 0006640 258.7371 101.2731 14.38279998393507
ORBCOMM FM19            
1 25415U 98046C   25093.48992593  .00003015  00000+0  10318-2 0  9995
2 25415  44.9925 171.3512 0005479 252.2969 121.9515 14.38088258393457
